satname,norad_id,inclination_deg,eccentricity,mean_motion_rev_per_day,perigee_km,apogee_km,l1,l2
STARLINK-1255,45399,53.0425,0.0002143,15.50186419,414.725287819193,417.6373326469584,1 45399U 20019AR  26060.50549180  .00094688  00000+0  16383-2 0  9995,2 45399  53.0425 142.0782 0002143 253.7300 106.3472 15.50186419329169
STARLINK-1260,45404,53.1617,0.0001312,15.30205395,474.2998032910282,476.0981186471863,1 45404U 20019AW  26060.59869529  .00002209  00000+0  86689-4 0  9999,2 45404  53.1617 166.8237 0001312  93.7892 266.3259 15.30205395328739
STARLINK-1263,45405,53.161,0.000138,15.30201855,474.26376890804477,476.1552925505248,1 45405U 20019AX  26060.58710927  .00004091  00000+0  15018-3 0  9994,2 45405  53.1610 166.9069 0001380  95.5283 264.5875 15.30201855328737
STARLINK-1265,45406,53.1603,0.0001204,15.30182286,474.4428107833173,476.09311069786327,1 45406U 20019AY  26060.60188311 -.00003161  00000+0 -94701-4 0  9990,2 45406  53.1603 166.9127 0001204  78.8043 281.3093 15.30182286328733
STARLINK-1278,45408,53.0458,8.48e-05,15.54136614,404.08836625029016,405.23872922318606,1 45408U 20019BA  26060.91668981  .00071452  00000+0  10779-2 0  9999,2 45408  53.0458 167.9826 0000848  99.3856 127.6434 15.54136614  5959
STARLINK-1296,45412,53.1588,0.0001474,15.30214285,474.1622395079103,476.1825951241344,1 45412U 20019BE  26060.72615046 -.00011959  00000+0 -39211-3 0  9998,2 45412  53.1588 166.2367 0001474  96.2187 263.8981 15.30214285328751
STARLINK-1298,45413,53.0365,0.0007382,15.91526877,293.08114326308623,302.93780591817176,1 45413U 20019BF  26060.91668981  .00270126  38329-4  82249-3 0  9996,2 45413  53.0365  93.6941 0007382 348.2962 106.6910 15.91526877  5893
STARLINK-1309,45414,53.0684,0.0003564,15.53051809,405.40318367192776,410.2402150328271,1 45414U 20019BG  26060.65286603  .00091839  00000+0  14350-2 0  9994,2 45414  53.0684 162.3866 0003564  10.6798 349.4286 15.53051809328788
STARLINK-1316,45415,53.1603,0.0001953,15.30209839,473.84723817445956,476.5241460179923,1 45415U 20019BH  26060.70614767 -.00001046  00000+0 -23184-4 0  9997,2 45415  53.1603 166.3822 0001953 131.6436 228.4732 15.30209839328774
STARLINK-1318,45416,53.0199,0.0002168,16.45864176,148.8339702194262,151.66467852967435,1 45416U 20019BJ  26060.58072376  .12842981  12525-4  33563-3 0  9991,2 45416  53.0199  78.8814 0002168 268.4541  91.6260 16.45864176329963
STARLINK-1286,45417,53.0503,0.0002351,15.50192512,414.56616688601935,417.7608469843817,1 45417U 20019BK  26060.54916477  .00048847  00000+0  85376-3 0  9992,2 45417  53.0503 169.8178 0002351  60.2427 299.8815 15.50192512328962
STARLINK-1308,45419,53.0536,6.71e-05,15.49502235,417.72515472490613,418.63722062569286,1 45419U 20019BM  26060.62204607  .00038042  00000+0  68400-3 0  9993,2 45419  53.0536 190.8084 0000671 349.4695  10.6299 15.49502235328423
STARLINK-1329,45531,53.0505,0.0001898,15.54390062,402.63898800541665,405.21345920509793,1 45531U 20025A   26060.48054669  .00106246  00000+0  15777-2 0  9990,2 45531  53.0505 121.0563 0001898 271.6969  88.3824 15.54390062324177
STARLINK-1338,45532,53.05,0.0004742,15.52999021,404.75749832464135,411.1934473939,1 45532U 20025B   26060.46943021  .00096284  00000+0  15059-2 0  9991,2 45532  53.0500 124.4027 0004742 320.3656  39.7006 15.52999021324126
STARLINK-1350,45535,53.0718,0.0001782,15.35833162,457.2286142276962,459.6651727273311,1 45535U 20025E   26060.39697205  .00013860  00000+0  40192-3 0  9992,2 45535  53.0718  72.0837 0001782  58.5701 301.5475 15.35833162324886
STARLINK-1362,45538,53.1614,0.0001336,15.30187014,474.33823053209835,476.16945656549433,1 45538U 20025H   26060.62227083  .00000259  00000+0  20888-4 0  9993,2 45538  53.1614 138.4690 0001336  80.3448 279.7703 15.30187014323944
STARLINK-1368,45540,53.16,0.0001241,15.30204208,474.35200568602886,476.0530045511996,1 45540U 20025K   26060.50115390  .00002005  00000+0  79793-4 0  9990,2 45540  53.1600 139.3641 0001241  88.6740 271.4402 15.30204208323916
STARLINK-1371,45542,53.0518,0.000189,15.45535471,428.5184498039416,431.09185193696976,1 45542U 20025M   26060.47467995  .00084937  00000+0  17306-2 0  9993,2 45542  53.0518 128.6214 0001890 281.6587  78.4207 15.45535471324066
STARLINK-1372,45543,53.1619,0.0001299,15.30198263,474.3300046856057,476.11050690065986,1 45543U 20025N   26060.47793324 -.00000322  00000+0  12646-5 0  9994,2 45543  53.1619 139.1670 0001299  82.6041 277.5107 15.30198263323013
STARLINK-1373,45544,53.052,0.0004911,15.49092862,416.04023354576384,422.7167532633857,1 45544U 20025P   26060.44327189  .00098245  00000+0  17650-2 0  9991,2 45544  53.0520 128.5351 0004911 327.8747  32.1961 15.49092862324060
STARLINK-1294,45551,53.0231,0.0002767,16.2343491,208.4191969465919,212.06520599668602,1 45551U 20025W   26060.44185569  .02891541  11900-4  11059-2 0  9998,2 45551  53.0231  16.3837 0002767 193.8438 166.2526 16.23434910325632
STARLINK-1327,45555,53.0487,0.0005744,15.52130486,406.6074036913633,414.4061976895964,1 45555U 20025AA  26060.41566625  .00101171  00000+0  16308-2 0  9992,2 45555  53.0487 106.5190 0005744  20.9281 339.1961 15.52130486324362
STARLINK-1356,45564,53.0513,0.0005901,15.43680546,431.23720355761543,439.2783720862026,1 45564U 20025AK  26060.83500603  .00039374  00000+0  86395-3 0  9991,2 45564  53.0513 111.2165 0005901   3.7582 356.3466 15.43680546324330
STARLINK-1357,45565,53.053,0.0003288,15.53535099,404.1835010925497,408.64502200214247,1 45565U 20025AL  26060.42117655  .00104907  00000+0  16072-2 0  9997,2 45565  53.0530  77.9586 0003288  41.5417 318.5842 15.53535099324777
STARLINK-1361,45567,53.0518,0.0007107,15.4609922,423.3129171883711,432.98737373693166,1 45567U 20025AN  26060.74256691  .00071688  00000+0  14354-2 0  9998,2 45567  53.0518 111.8631 0007107 358.5678   1.5307 15.46099220324327
STARLINK-1363,45568,53.0433,0.0008586,15.74631944,339.9056633253622,351.4517996995155,1 45568U 20025AP  26060.32468543  .00107581  00000+0  71420-3 0  9994,2 45568  53.0433  79.4311 0008586  25.6560 334.4883 15.74631944324730
STARLINK-1366,45569,53.0435,0.000844,15.73870937,342.16925225197974,353.52271152540743,1 45569U 20025AQ  26060.33601836  .00098467  00000+0  67666-3 0  9999,2 45569  53.0435  80.1060 0008440  24.4644 335.6773 15.73870937324728
STARLINK-1376,45570,53.1619,0.0001362,15.29356817,476.80004888683743,478.6675880977955,1 45570U 20025AR  26060.41973984  .00000321  00000+0  23467-4 0  9990,2 45570  53.1619 116.1685 0001362  87.9740 272.1416 15.29356817324237
STARLINK-1320,45572,53.0499,0.0007945,15.67212697,361.52364549930553,372.24148158577464,1 45572U 20025AT  26060.32922510  .00081445  00000+0  74150-3 0  9991,2 45572  53.0499  26.9388 0007945  27.4168 332.7266 15.67212697325492
STARLINK-1321,45573,53.0504,0.0004337,15.46794126,423.1604815936962,429.06248672885886,1 45573U 20025AU  26060.81500321  .00087996  00000+0  17157-2 0  9998,2 45573  53.0504  96.1378 0004337  11.5945 348.5160 15.46794126324246
STARLINK-1331,45578,53.0538,0.0003856,15.46762726,423.5798163904401,428.8273238381116,1 45578U 20025AZ  26060.82214435  .00088501  00000+0  17274-2 0  9995,2 45578  53.0538 102.7714 0003856  52.3977 307.7379 15.46762726324463
STARLINK-1333,45580,53.1607,0.0001334,15.30189408,474.33245401956447,476.160936789498,1 45580U 20025BB  26060.46369809  .00008654  00000+0  30406-3 0  9998,2 45580  53.1607 116.0185 0001334  90.6824 269.4330 15.30189408324249
STARLINK-1335,45581,53.1236,0.000117,15.22630556,497.1051458708689,498.7141407854069,1 45581U 20025BC  26060.91668981  .01436329  00000+0  55860-1 0  9996,2 45581  53.1236 111.0339 0001170  64.9358 286.9371 15.22630556  5687
STARLINK-1337,45582,53.0535,0.0004121,15.56755595,394.2620716513002,399.8461841789267,1 45582U 20025BD  26060.79196563  .00115314  00000+0  15668-2 0  9995,2 45582  53.0535 100.0791 0004121  52.9322 307.2065 15.56755595324483
STARLINK-1347,45586,53.0465,0.0005964,15.52221046,406.19416546697903,414.2913448389263,1 45586U 20025BH  26060.25233641  .00112136  00000+0  17983-2 0  9990,2 45586  53.0465  70.1716 0005964  19.5418 340.5818 15.52221046324856
STARLINK-1364,45589,53.0512,0.0007064,15.47913423,418.02678120057953,427.6351887697674,1 45589U 20025BL  26060.81505704  .00089957  00000+0  16858-2 0  9991,2 45589  53.0512 100.9174 0007064  24.2485 335.8853 15.47913423324477
STARLINK-1365,45590,53.0533,0.0002825,15.44117442,432.04810828477,435.8969501687834,1 45590U 20025BM  26060.58073929  .00036685  00000+0  79438-3 0  9990,2 45590  53.0533 132.1370 0002825   2.1162 357.9855 15.44117442324037
STARLINK-1443,45660,53.1342,0.0001636,15.24829114,490.1747797965636,492.42245913125225,1 45660U 20035D   26060.91668981  .00046792  00000+0  18621-2 0  9990,2 45660  53.1342 100.7501 0001636  60.8475 301.6897 15.24829114  5838
STARLINK-1446,45663,53.0249,5.51e-05,15.42460778,438.4736909553267,439.2249228463461,1 45663U 20035G   26060.32430381  .00024283  00000+0  56001-3 0  9995,2 45663  53.0249  39.1008 0000551 225.9639 134.1320 15.42460778318388
STARLINK-1448,45665,53.0516,0.0007304,15.50461104,410.4168327809439,420.34080068602725,1 45665U 20035J   26060.72689218  .00108682  00000+0  18563-2 0  9992,2 45665  53.0516  91.0211 0007304  43.6695 316.4890 15.50461104317682
STARLINK-1451,45668,53.0531,0.0001308,15.09576269,536.5892594107745,538.3983884343133,1 45668U 20035M   26060.80337277  .00026055  00000+0  16161-2 0  9994,2 45668  53.0531 101.6554 0001308 352.7099   7.3872 15.09576269317555
STARLINK-1452,45669,53.0334,0.0007969,15.4347247,430.44003569469805,441.300200239315,1 45669U 20035N   26060.39625825  .00087348  00000+0  19060-2 0  9991,2 45669  53.0334  61.2006 0007969  21.7675 338.3667 15.43472470318087
STARLINK-1453,45670,53.0487,0.0008214,15.5035993,410.09393281712164,421.25480613489617,1 45670U 20035P   26060.26724244  .00118213  00000+0  20227-2 0  9997,2 45670  53.0487  53.8299 0008214  10.9354 349.1831 15.50359930318061
